ONEWEB-0037             
1 45440U 20020S   23280.87737776  .00000571  00000+0  15761-2 0  9992
2 45440  87.8981 216.3729 0002065  84.4441 275.6923 13.11418799173816
ONEWEB-0042             
1 45441U 20020T   23280.91667824 -.00038652  00000+0 -10951+0 0  9990
2 45441  87.8975 216.3861 0002098  81.0732  67.8301 13.11441881  4899
ONEWEB-0098             
1 45442U 20020U   23280.87901060  .00000290  00000+0  78197-3 0  9994
2 45442  87.8986 216.3964 0002041  68.1336 292.0009 13.11397843173768
ONEWEB-0055             
1 45443U 20020V   23280.86680021 -.00000195  00000+0 -58588-3 0  9993
2 45443  87.8986 216.4032 0002040  72.7576 287.3775 13.11417845173731
ONEWEB-0093             
1 45444U 20020W   23280.84004339 -.00000254  00000+0 -75246-3 0  9990
2 45444  87.8974 216.3927 0002237  70.1291 290.0078 13.11411412173792
ONEWEB-0029             
1 45445U 20020X   23280.85948592 -.00001090  00000+0 -31115-2 0  9995
2 45445  87.8986 216.3969 0002159  81.1217 279.0155 13.11419753173772
ONEWEB-0068             
1 45446U 20020Y   23280.83436805  .00001424  00000+0  39819-2 0  9991
2 45446  87.8976 216.3921 0002275  72.1295 288.0081 13.11415412173715
ONEWEB-0046             
1 45447U 20020Z   23280.90820288 -.00000061  00000+0 -20734-3 0  9997
2 45447  87.8975 216.3900 0001923  87.0576 273.0772 13.11412306173730
